STARLINK-32685          
1 62500U 25003P   26068.00309784  .00028833  00000+0  10524-2 0  9993
2 62500  43.0010 293.1001 0001980 250.2841 109.7797 15.27605936 66511
COSMOS 2588             
1 64095U 25109A   26068.81179522  .00009169  00000+0  32611-3 0  9998
2 64095  72.9704  73.5401 0005019 308.6780  51.3966 15.29122656 44425
